0 COSMOS 1375 DEB
1 27803U 82055BQ  13281.77132558  .00000719  00000-0  58817-3 0  7147
2 27803 065.8201 160.3915 0039644 268.5549 153.2149 13.95467682143918
0 COSMOS 1375 DEB
1 27803U 82055BQ  13283.08036953  .00000791  00000-0  64055-3 0  7157
2 27803 065.8201 157.0424 0039585 268.0317 249.3020 13.95471074144093
0 COSMOS 1375 DEB
1 27803U 82055BQ  13286.09164466  .00000799  00000-0  64664-3 0  7178
2 27803 065.8199 149.3384 0039486 266.8970 256.6535 13.95475737144518
0 COSMOS 1375 DEB
1 27803U 82055BQ  13288.02380027  .00001086  00000-0  85637-3 0  7180
2 27803 065.8196 144.3950 0039413 266.1033 243.0669 13.95479837144784
0 COSMOS 1375 DEB
1 27803U 82055BQ  13289.02714990  .00000946  00000-0  75377-3 0  7196
2 27803 065.8195 141.8279 0039385 265.7031 243.5139 13.95482053144927
0 COSMOS 1375 DEB
1 27803U 82055BQ  13290.65790670  .00000919  00000-0  73380-3 0  7200
2 27803 065.8196 137.6553 0039332 265.0413 155.8420 13.95485470145155
0 COSMOS 1375 DEB
1 27803U 82055BQ  13291.66120200  .00000943  00000-0  75183-3 0  7219
2 27803 065.8196 135.0882 0039322 264.6522 156.0255 13.95487046145292
0 COSMOS 1375 DEB
1 27803U 82055BQ  13292.66473492  .00000976  00000-0  77553-3 0  7224
2 27803 065.8197 132.5205 0039295 264.2392 157.4343 13.95489089145432
0 COSMOS 1375 DEB
1 27803U 82055BQ  13293.97221291  .00000999  00000-0  79234-3 0  7231
2 27803 065.8195 129.1748 0039287 263.7182 245.7528 13.95491377145615
0 COSMOS 1375 DEB
1 27803U 82055BQ  13294.97557142  .00001085  00000-0  85499-3 0  7247
2 27803 065.8195 126.6076 0039271 263.2958 246.3112 13.95492970145751
